GEOSCAN 3 (RS92S3)      
1 64893U 25155T   26155.15666590  .00020104  00000+0  59460-3 0  9998
2 64893  97.4537 124.8869 0004702 206.0747 154.0260 15.34938736 78859
INNOSAT 3 (RS92S0)      
1 64894U 25155U   26155.15105296  .00041313  00000+0  93943-3 0  9999
2 64894  97.4489 126.3448 0004010 187.0666 173.0525 15.42872522 78951
KNACKSAT-2              
1 67683U 98067XZ  26153.80264404  .00045408  00000+0  58253-3 0  9991
2 67683  51.6300   6.7601 0010958 153.2067 206.9494 15.58609395 18031
