OBJECT_NAME,OBJECT_ID,EPOCH,MEAN_MOTION,ECCENTRICITY,INCLINATION,RA_OF_ASC_NODE,ARG_OF_PERICENTER,MEAN_ANOMALY,EPHEMERIS_TYPE,CLASSIFICATION_TYPE,NORAD_CAT_ID,ELEMENT_SET_NO,REV_AT_EPOCH,BSTAR,MEAN_MOTION_DOT,MEAN_MOTION_DDOT
GEOSCAN 3 (RS92S3),2025-155T,2026-06-04T03:45:35.933760,15.34938736,.0004702,97.4537,124.8869,206.0747,154.0260,0,U,64893,999,7885,.5946E-3,.20104E-3,0
INNOSAT 3 (RS92S0),2025-155U,2026-06-04T03:37:30.975744,15.42872522,.000401,97.4489,126.3448,187.0666,173.0525,0,U,64894,999,7895,.93943E-3,.41313E-3,0
KNACKSAT-2,1998-067XZ,2026-06-02T19:15:48.445056,15.58609395,.0010958,51.6300,6.7601,153.2067,206.9494,0,U,67683,999,1803,.58253104E-3,.45408E-3,0
